GSAT0101 (PRN E11)      
1 37846U 11060A   24041.26110608 -.00000078  00000+0  00000+0 0  9995
2 37846  57.1261   4.9938 0003699 345.1252  14.8485  1.70475663 76499
GSAT0102 (PRN E12)      
1 37847U 11060B   24043.52736260 -.00000086  00000+0  00000+0 0  9994
2 37847  57.1265   4.9325 0005199 327.3607  29.3976  1.70475089 76530
GSAT0103 (PRN E19)      
1 38857U 12055A   24041.88699030  .00000001  00000+0  00000+0 0  9997
2 38857  55.3486 125.1051 0004633 259.3993 100.5949  1.70473386 70391
GSAT0104 (PRN E20)      
1 38858U 12055B   24043.61600644 -.00000001  00000+0  00000+0 0  9995
2 38858  55.3491 125.0590 0002116 243.5637 116.4661  1.70473556 70429
GSAT0201 (PRN E18)      
1 40128U 14050A   24042.96312178 -.00000060  00000+0  00000+0 0  9999
2 40128  49.7823 308.1338 1605872 146.3830 224.9427  1.85519460 62434
GSAT0202 (PRN E14)      
1 40129U 14050B   24042.14393043 -.00000051  00000+0  00000+0 0  9990
2 40129  49.8009 307.2413 1604354 147.1488 223.9515  1.85520157 64588
GSAT0203 (PRN E26)      
1 40544U 15017A   24042.80006283 -.00000084  00000+0  00000+0 0  9991
2 40544  56.9216   4.9033 0004980 281.6472  78.2813  1.70475542 54607
GSAT0204 (PRN E22)      
1 40545U 15017B   24043.05410223 -.00000085  00000+0  00000+0 0  9994
2 40545  56.9277   4.9114 0004354 272.8386  87.0960  1.70475274 17653
GSAT0205 (PRN E24)      
1 40889U 15045A   24042.82272837  .00000058  00000+0  00000+0 0  9996
2 40889  55.2787 245.2600 0006534  39.7431 320.3320  1.70473278 52413
GSAT0206 (PRN E30)      
1 40890U 15045B   24043.04336199  .00000057  00000+0  00000+0 0  9994
2 40890  55.2780 245.2494 0004351  41.1871 318.8713  1.70473332 52441
GSAT0209 (PRN E09)      
1 41174U 15079A   24043.21363834  .00000000  00000+0  00000+0 0  9990
2 41174  55.3671 124.7767 0003168 307.6218  52.4011  1.70474701 50183
GSAT0208 (PRN E08)      
1 41175U 15079B   24042.84674895  .00000001  00000+0  00000+0 0  9992
2 41175  55.3660 124.7848 0002946 300.9292  59.0927  1.70474624 50759
GSAT0211 (PRN E02)      
1 41549U 16030A   24042.96908403  .00000058  00000+0  00000+0 0  9995
2 41549  55.4259 245.2492 0004072  17.1515 342.8886  1.70473357 48071
GSAT0210 (PRN E01)      
1 41550U 16030B   24042.67376400  .00000059  00000+0  00000+0 0  9992
2 41550  55.4254 245.2584 0001763   0.9041 359.1249  1.70473555 48061
GSAT0207 (PRN E07)      
1 41859U 16069A   24042.33420554  .00000001  00000+0  00000+0 0  9996
2 41859  55.0309 124.8335 0004021 287.6787  72.3262  1.70474657 44796
GSAT0212 (PRN E03)      
1 41860U 16069B   24043.36181500 -.00000001  00000+0  00000+0 0  9998
2 41860  55.0289 124.8016 0001857 319.4835  40.5542  1.70474959 45067
GSAT0213 (PRN E04)      
1 41861U 16069C   24039.62307185 -.00000005  00000+0  00000+0 0  9996
2 41861  55.0296 124.9119 0004374 266.5245  93.4575  1.70473374 44865
GSAT0214 (PRN E05)      
1 41862U 16069D   24040.94266928 -.00000001  00000+0  00000+0 0  9999
2 41862  55.0273 124.8692 0003051 258.2417 101.7651  1.70465146 45010
GSAT0215 (PRN E21)      
1 43055U 17079A   24042.60519409  .00000060  00000+0  00000+0 0  9991
2 43055  55.4029 245.0828 0001354  16.2838 343.7493  1.70474075 38384
GSAT0216 (PRN E25)      
1 43056U 17079B   24042.31040922  .00000062  00000+0  00000+0 0  9991
2 43056  55.4036 245.0908 0002200 330.1083  29.9104  1.70474211 38398
GSAT0217 (PRN E27)      
1 43057U 17079C   24043.11740319  .00000057  00000+0  00000+0 0  9992
2 43057  55.4008 245.0675 0002701 354.0755   5.9460  1.70474149 38395
GSAT0218 (PRN E31)      
1 43058U 17079D   24042.16427581  .00000063  00000+0  00000+0 0  9997
2 43058  55.4009 245.0912 0002278 315.2287  44.7855  1.70474149 38400
GSAT0221 (PRN E15)      
1 43564U 18060A   24042.65056296 -.00000083  00000+0  00000+0 0  9998
2 43564  57.3019   4.8759 0005677 294.2118  65.7129  1.70475325 34566
GSAT0222 (PRN E33)      
1 43565U 18060B   24043.45547057 -.00000086  00000+0  00000+0 0  9991
2 43565  57.3036   4.8556 0004317 273.3720  86.5630  1.70475061 34620
GSAT0219 (PRN E36)      
1 43566U 18060C   24042.50438781 -.00000083  00000+0  00000+0 0  9997
2 43566  57.3036   4.8834 0005039 302.4629  57.4724  1.70475307 34583
GSAT0220 (PRN E13)      
1 43567U 18060D   24041.55173767 -.00000079  00000+0  00000+0 0  9997
2 43567  57.3039   4.9092 0005133 296.6845  63.2472  1.70475060 34540
GSAT0223 (PRN E34)      
1 49809U 21116A   24041.99098748 -.00000081  00000+0  00000+0 0  9994
2 49809  57.2953   4.7925 0002444 264.5800  95.2977  1.70475187 13563
GSAT0224 (PRN E10)      
1 49810U 21116B   24042.68325604 -.00000083  00000+0  00000+0 0  9999
2 49810  57.2961   4.7720 0001977 280.0507 257.1806  1.70475191 13604
